GSAT0221 (GALILEO 25)   
1 43564U 18060A   22206.59626889 -.00000079  00000+0  00000+0 0  9997
2 43564  57.1880  20.1526 0001356 269.6559  90.3543  1.70476034 24929
GSAT0222 (GALILEO 26)   
1 43565U 18060B   22205.05638623 -.00000083  00000+0  00000+0 0  9992
2 43565  57.1904  20.1947 0001018 302.1347  57.8822  1.70475995 24931
GSAT0219 (GALILEO 23)   
1 43566U 18060C   22206.45009971 -.00000080  00000+0  00000+0 0  9993
2 43566  57.1914  20.1591 0000677 309.2039  50.8161  1.70476043 24938
GSAT0220 (GALILEO 24)   
1 43567U 18060D   22204.91048447 -.00000083  00000+0  00000+0 0  9997
2 43567  57.1907  20.2004 0000822 273.4493  86.5682  1.70476003 24894
BEIDOU-3 M13            
1 43622U 18072A   22206.29274286 -.00000064  00000+0  00000+0 0  9996
2 43622  55.5000 110.0834 0006962 296.2695 210.5757  1.86231823 26158
BEIDOU-3 M14            
1 43623U 18072B   22207.25089854 -.00000055  00000+0  00000+0 0  9999
2 43623  55.5026 110.0433 0005436 320.6012 198.8824  1.86231815 26178
GPS BIII-1              
1 43873U 18109A   22206.28150458 -.00000022  00000+0  00000+0 0  9992
2 43873  55.0966 148.4021 0019484 194.9545 323.5769  2.00573356 26533
METEOR-M2 2             
1 44387U 19038A   22207.50790720  .00000008  00000+0  22914-4 0  9999
2 44387  98.7252 167.9781 0001876 128.6352 231.4989 14.23715578158967
GPS BIII-2              
1 44506U 19056A   22206.88477516 -.00000078  00000+0  00000+0 0  9992
2 44506  55.6975  27.5196 0025907 177.9705 315.7916  2.00558016 21548
BEIDOU-3 M23            
1 44542U 19061A   22207.39354817  .00000082  00000+0  00000+0 0  9997
2 44542  54.5752 230.7885 0008416 323.9510  36.0593  1.86231459 19313
BEIDOU-3 M24            
1 44543U 19061B   22207.57244957  .00000081  00000+0  00000+0 0  9990
2 44543  54.5724 230.7523 0005983 307.4519  83.8619  1.86231700 19312
BEIDOU-3 M21            
1 44793U 19078A   22206.97093302 -.00000112  00000+0  10000-3 0  9995
2 44793  54.9603 349.2920 0006113  23.9306 157.2630  1.86232245 18162
BEIDOU-3 M22            
1 44794U 19078B   22206.91755178 -.00000112  00000+0  00000+0 0  9991
2 44794  54.9323 349.2842 0003879  25.2655  31.8701  1.86232689 18161
ELEKTRO-L 3             
1 44903U 19095A   22206.83547187 -.00000094  00000+0  00000+0 0  9991
2 44903   0.0566 169.8012 0001323 331.9771 178.4882  1.00271459  9451
GPS BIII-3              
1 45854U 20041A   22207.44173559 -.00000050  00000+0  00000+0 0  9998
2 45854  55.5502  84.7672 0023824 176.6213 295.7054  2.00558733 15516
GPS BIII-4              
1 46826U 20078A   22206.55503133  .00000020  00000+0  00000+0 0  9990
2 46826  54.5416 268.5499 0021846 189.3772 338.6814  2.00565200 12976
GSAT0223 (GALILEO 27)   
1 49809U 21116A   22202.41438377 -.00000088  00000+0  00000+0 0  9991
2 49809  57.1824  20.1657 0002793 140.4735 217.6493  1.70475990  3855
GSAT0224 (GALILEO 28)   
1 49810U 21116B   22204.87549237 -.00000084  00000+0  00000+0 0  9999
2 49810  57.1842  20.0975 0002610 127.6024  53.4401  1.70476174  3912
